OPS 7218 (TRANSIT 16)   
1 02807U 67048A   26065.55613324  .00000174  00000+0  25475-3 0  9997
2 02807  89.6811 351.2683 0018450 231.1961 302.3457 13.50743360894075
OPS 4947 (TRANSIT 17)   
1 02965U 67092A   26065.36139164  .00000187  00000+0  26038-3 0  9995
2 02965  89.2561  18.0658 0047716 355.6740 117.5854 13.53477042882283
OPS 7034 (TRANSIT 18)   
1 03133U 68012A   26065.07699914  .00000132  00000+0  18687-3 0  9999
2 03133  90.0214 273.8617 0072130 289.7246 182.0165 13.51588356580442
NNSS 19 (TRANSIT 19)    
1 04507U 70067A   26065.44597563  .00000149  00000+0  19405-3 0  9993
2 04507  90.0053 234.5790 0173123  50.8734 310.7663 13.51337560733529
NNSS 20 (TRANSIT 20)    
1 06909U 73081A   26065.51652416  .00000255  00000+0  25010-3 0  9994
2 06909  89.8513 253.7792 0154390 186.3239 173.5980 13.71473862815097
TRANSAT                 
1 10457U 77106A   26065.47522389  .00000084  00000+0  11761-3 0  9997
2 10457  89.6397  75.5917 0024101 315.4343 198.6560 13.48957507378727
NOVA 1                  
1 12458U 81044A   26065.53112545  .00000047  00000+0  90544-4 0  9998
2 12458  89.8425  90.1639 0012786 228.0181 286.8211 13.23287187162944
NOVA 3                  
1 15362U 84110A   26065.31573113  .00000093  00000+0  20074-3 0  9991
2 15362  90.1128  81.4792 0033434  98.6232 273.4651 13.23056462998048
OSCAR 30                
1 15935U 85066A   26065.56468125  .00000095  00000+0  15672-3 0  9991
2 15935  90.1550 101.1852 0166981 206.6007 319.7380 13.36094495975720
OSCAR 24                
1 15936U 85066B   26065.37565415  .00000094  00000+0  15596-3 0  9995
2 15936  90.1687  93.7480 0167794 213.7081 156.4677 13.35952241977604
POLAR BEAR              
1 17070U 86088A   26065.35790067  .00000143  00000+0  13679-3 0  9997
2 17070  89.6252 180.4496 0038016 226.0603 193.7296 13.75269509971289
OSCAR 27                
1 18361U 87080A   26065.46626326  .00000108  00000+0  16594-3 0  9992
2 18361  90.3647  82.3634 0103264 345.8978  13.9291 13.44924007886827
OSCAR 29                
1 18362U 87080B   26065.34593806  .00000099  00000+0  15059-3 0  9990
2 18362  90.3657  82.8246 0105660   9.5056   2.3006 13.44464088886336
OSCAR 23                
1 19070U 88033A   26065.84136765  .00000108  00000+0  20489-3 0  9992
2 19070  90.3290  19.0134 0187999 306.9552  78.8970 13.27803241833692
OSCAR 32                
1 19071U 88033B   26065.80527922  .00000085  00000+0  15925-3 0  9991
2 19071  90.3294  19.1487 0186137 293.7501  80.1743 13.27967893833811
NOVA 2                  
1 19223U 88052A   26065.50706472  .00000062  00000+0  12579-3 0  9994
2 19223  89.9783  78.1290 0031614 140.0297  14.8060 13.22947369820553
OSCAR 25                
1 19419U 88074A   26065.37415931  .00000143  00000+0  22981-3 0  9995
2 19419  90.0416  20.5276 0096641   8.9110 109.8082 13.42641129837620
