[{"OBJECT_NAME":"OPS 7218 (TRANSIT 16)","OBJECT_ID":"1967-048A","EPOCH":"2026-03-06T13:20:49.911936","MEAN_MOTION":13.5074336,"ECCENTRICITY":0.00184508,"INCLINATION":89.6811,"RA_OF_ASC_NODE":351.2683,"ARG_OF_PERICENTER":231.1961,"MEAN_ANOMALY":302.3457,"EPHEMERIS_TYPE":0,"CLASSIFICATION_TYPE":"U","NORAD_CAT_ID":2807,"ELEMENT_SET_NO":999,"REV_AT_EPOCH":89407,"BSTAR":0.00025474731,"MEAN_MOTION_DOT":1.74e-6,"MEAN_MOTION_DDOT":0},{"OBJECT_NAME":"OPS 4947 (TRANSIT 17)","OBJECT_ID":"1967-092A","EPOCH":"2026-03-06T08:40:24.237696","MEAN_MOTION":13.53477042,"ECCENTRICITY":0.00477165,"INCLINATION":89.2561,"RA_OF_ASC_NODE":18.0658,"ARG_OF_PERICENTER":355.674,"MEAN_ANOMALY":117.5854,"EPHEMERIS_TYPE":0,"CLASSIFICATION_TYPE":"U","NORAD_CAT_ID":2965,"ELEMENT_SET_NO":999,"REV_AT_EPOCH":88228,"BSTAR":0.00026037955,"MEAN_MOTION_DOT":1.87e-6,"MEAN_MOTION_DDOT":0},{"OBJECT_NAME":"OPS 7034 (TRANSIT 18)","OBJECT_ID":"1968-012A","EPOCH":"2026-03-06T01:50:52.725696","MEAN_MOTION":13.51588356,"ECCENTRICITY":0.00721302,"INCLINATION":90.0214,"RA_OF_ASC_NODE":273.8617,"ARG_OF_PERICENTER":289.7246,"MEAN_ANOMALY":182.0165,"EPHEMERIS_TYPE":0,"CLASSIFICATION_TYPE":"U","NORAD_CAT_ID":3133,"ELEMENT_SET_NO":999,"REV_AT_EPOCH":58044,"BSTAR":0.00018686589,"MEAN_MOTION_DOT":1.32e-6,"MEAN_MOTION_DDOT":0},{"OBJECT_NAME":"NNSS 19 (TRANSIT 19)","OBJECT_ID":"1970-067A","EPOCH":"2026-03-06T10:42:12.294432","MEAN_MOTION":13.5133756,"ECCENTRICITY":0.01731233,"INCLINATION":90.0053,"RA_OF_ASC_NODE":234.579,"ARG_OF_PERICENTER":50.8734,"MEAN_ANOMALY":310.7663,"EPHEMERIS_TYPE":0,"CLASSIFICATION_TYPE":"U","NORAD_CAT_ID":4507,"ELEMENT_SET_NO":999,"REV_AT_EPOCH":73352,"BSTAR":0.00019404815,"MEAN_MOTION_DOT":1.49e-6,"MEAN_MOTION_DDOT":0},{"OBJECT_NAME":"NNSS 20 (TRANSIT 20)","OBJECT_ID":"1973-081A","EPOCH":"2026-03-06T12:23:47.687424","MEAN_MOTION":13.71473862,"ECCENTRICITY":0.01543901,"INCLINATION":89.8513,"RA_OF_ASC_NODE":253.7792,"ARG_OF_PERICENTER":186.3239,"MEAN_ANOMALY":173.598,"EPHEMERIS_TYPE":0,"CLASSIFICATION_TYPE":"U","NORAD_CAT_ID":6909,"ELEMENT_SET_NO":999,"REV_AT_EPOCH":81509,"BSTAR":0.00025010112,"MEAN_MOTION_DOT":2.55e-6,"MEAN_MOTION_DDOT":0},{"OBJECT_NAME":"TRANSAT","OBJECT_ID":"1977-106A","EPOCH":"2026-03-06T11:24:19.344096","MEAN_MOTION":13.48957507,"ECCENTRICITY":0.00241018,"INCLINATION":89.6397,"RA_OF_ASC_NODE":75.5917,"ARG_OF_PERICENTER":315.4343,"MEAN_ANOMALY":198.656,"EPHEMERIS_TYPE":0,"CLASSIFICATION_TYPE":"U","NORAD_CAT_ID":10457,"ELEMENT_SET_NO":999,"REV_AT_EPOCH":37872,"BSTAR":0.00011760522,"MEAN_MOTION_DOT":8.4e-7,"MEAN_MOTION_DDOT":0},{"OBJECT_NAME":"NOVA 1","OBJECT_ID":"1981-044A","EPOCH":"2026-03-06T12:44:49.238880","MEAN_MOTION":13.23287187,"ECCENTRICITY":0.00127865,"INCLINATION":89.8425,"RA_OF_ASC_NODE":90.1639,"ARG_OF_PERICENTER":228.0181,"MEAN_ANOMALY":286.8211,"EPHEMERIS_TYPE":0,"CLASSIFICATION_TYPE":"U","NORAD_CAT_ID":12458,"ELEMENT_SET_NO":999,"REV_AT_EPOCH":16294,"BSTAR":9.0543867e-5,"MEAN_MOTION_DOT":4.7e-7,"MEAN_MOTION_DDOT":0},{"OBJECT_NAME":"NOVA 3","OBJECT_ID":"1984-110A","EPOCH":"2026-03-06T07:34:39.169632","MEAN_MOTION":13.23056462,"ECCENTRICITY":0.00334347,"INCLINATION":90.1128,"RA_OF_ASC_NODE":81.4792,"ARG_OF_PERICENTER":98.6232,"MEAN_ANOMALY":273.4651,"EPHEMERIS_TYPE":0,"CLASSIFICATION_TYPE":"U","NORAD_CAT_ID":15362,"ELEMENT_SET_NO":999,"REV_AT_EPOCH":99804,"BSTAR":0.00020074403,"MEAN_MOTION_DOT":9.3e-7,"MEAN_MOTION_DDOT":0},{"OBJECT_NAME":"OSCAR 30","OBJECT_ID":"1985-066A","EPOCH":"2026-03-06T13:33:08.460000","MEAN_MOTION":13.36094495,"ECCENTRICITY":0.01669815,"INCLINATION":90.155,"RA_OF_ASC_NODE":101.1852,"ARG_OF_PERICENTER":206.6007,"MEAN_ANOMALY":319.738,"EPHEMERIS_TYPE":0,"CLASSIFICATION_TYPE":"U","NORAD_CAT_ID":15935,"ELEMENT_SET_NO":999,"REV_AT_EPOCH":97572,"BSTAR":0.00015672093,"MEAN_MOTION_DOT":9.5e-7,"MEAN_MOTION_DDOT":0},{"OBJECT_NAME":"OSCAR 24","OBJECT_ID":"1985-066B","EPOCH":"2026-03-06T09:00:56.518560","MEAN_MOTION":13.35952241,"ECCENTRICITY":0.01677947,"INCLINATION":90.1687,"RA_OF_ASC_NODE":93.748,"ARG_OF_PERICENTER":213.7081,"MEAN_ANOMALY":156.4677,"EPHEMERIS_TYPE":0,"CLASSIFICATION_TYPE":"U","NORAD_CAT_ID":15936,"ELEMENT_SET_NO":999,"REV_AT_EPOCH":97760,"BSTAR":0.00015595966,"MEAN_MOTION_DOT":9.4e-7,"MEAN_MOTION_DDOT":0},{"OBJECT_NAME":"POLAR BEAR","OBJECT_ID":"1986-088A","EPOCH":"2026-03-06T08:35:22.617888","MEAN_MOTION":13.75269509,"ECCENTRICITY":0.00380161,"INCLINATION":89.6252,"RA_OF_ASC_NODE":180.4496,"ARG_OF_PERICENTER":226.0603,"MEAN_ANOMALY":193.7296,"EPHEMERIS_TYPE":0,"CLASSIFICATION_TYPE":"U","NORAD_CAT_ID":17070,"ELEMENT_SET_NO":999,"REV_AT_EPOCH":97128,"BSTAR":0.00013678862,"MEAN_MOTION_DOT":1.43e-6,"MEAN_MOTION_DDOT":0},{"OBJECT_NAME":"OSCAR 27","OBJECT_ID":"1987-080A","EPOCH":"2026-03-06T11:11:25.145664","MEAN_MOTION":13.44924007,"ECCENTRICITY":0.01032648,"INCLINATION":90.3647,"RA_OF_ASC_NODE":82.3634,"ARG_OF_PERICENTER":345.8978,"MEAN_ANOMALY":13.9291,"EPHEMERIS_TYPE":0,"CLASSIFICATION_TYPE":"U","NORAD_CAT_ID":18361,"ELEMENT_SET_NO":999,"REV_AT_EPOCH":88682,"BSTAR":0.00016593533,"MEAN_MOTION_DOT":1.08e-6,"MEAN_MOTION_DDOT":0},{"OBJECT_NAME":"OSCAR 29","OBJECT_ID":"1987-080B","EPOCH":"2026-03-06T08:18:09.048384","MEAN_MOTION":13.44464088,"ECCENTRICITY":0.01056609,"INCLINATION":90.3657,"RA_OF_ASC_NODE":82.8246,"ARG_OF_PERICENTER":9.5056,"MEAN_ANOMALY":2.3006,"EPHEMERIS_TYPE":0,"CLASSIFICATION_TYPE":"U","NORAD_CAT_ID":18362,"ELEMENT_SET_NO":999,"REV_AT_EPOCH":88633,"BSTAR":0.00015059219,"MEAN_MOTION_DOT":9.9e-7,"MEAN_MOTION_DDOT":0},{"OBJECT_NAME":"OSCAR 23","OBJECT_ID":"1988-033A","EPOCH":"2026-03-06T20:11:34.164960","MEAN_MOTION":13.27803241,"ECCENTRICITY":0.0187999,"INCLINATION":90.329,"RA_OF_ASC_NODE":19.0134,"ARG_OF_PERICENTER":306.9552,"MEAN_ANOMALY":78.897,"EPHEMERIS_TYPE":0,"CLASSIFICATION_TYPE":"U","NORAD_CAT_ID":19070,"ELEMENT_SET_NO":999,"REV_AT_EPOCH":83369,"BSTAR":0.00020489,"MEAN_MOTION_DOT":1.08e-6,"MEAN_MOTION_DDOT":0},{"OBJECT_NAME":"OSCAR 32","OBJECT_ID":"1988-033B","EPOCH":"2026-03-06T19:19:36.124608","MEAN_MOTION":13.27967893,"ECCENTRICITY":0.0186137,"INCLINATION":90.3294,"RA_OF_ASC_NODE":19.1487,"ARG_OF_PERICENTER":293.7501,"MEAN_ANOMALY":80.1743,"EPHEMERIS_TYPE":0,"CLASSIFICATION_TYPE":"U","NORAD_CAT_ID":19071,"ELEMENT_SET_NO":999,"REV_AT_EPOCH":83381,"BSTAR":0.00015925,"MEAN_MOTION_DOT":8.5e-7,"MEAN_MOTION_DDOT":0},{"OBJECT_NAME":"NOVA 2","OBJECT_ID":"1988-052A","EPOCH":"2026-03-06T12:10:10.391808","MEAN_MOTION":13.22947369,"ECCENTRICITY":0.00316149,"INCLINATION":89.9783,"RA_OF_ASC_NODE":78.129,"ARG_OF_PERICENTER":140.0297,"MEAN_ANOMALY":14.806,"EPHEMERIS_TYPE":0,"CLASSIFICATION_TYPE":"U","NORAD_CAT_ID":19223,"ELEMENT_SET_NO":999,"REV_AT_EPOCH":82055,"BSTAR":0.00012578672,"MEAN_MOTION_DOT":6.2e-7,"MEAN_MOTION_DDOT":0},{"OBJECT_NAME":"OSCAR 25","OBJECT_ID":"1988-074A","EPOCH":"2026-03-06T08:58:47.364384","MEAN_MOTION":13.42641129,"ECCENTRICITY":0.00966418,"INCLINATION":90.0416,"RA_OF_ASC_NODE":20.5276,"ARG_OF_PERICENTER":8.911,"MEAN_ANOMALY":109.8082,"EPHEMERIS_TYPE":0,"CLASSIFICATION_TYPE":"U","NORAD_CAT_ID":19419,"ELEMENT_SET_NO":999,"REV_AT_EPOCH":83762,"BSTAR":0.00022981102,"MEAN_MOTION_DOT":1.43e-6,"MEAN_MOTION_DDOT":0}]
